[{"OBJECT_NAME":"STARLINK-30300","OBJECT_ID":"2023-129T","EPOCH":"2026-03-09T22:00:01.999584","MEAN_MOTION":15.27579552,"ECCENTRICITY":0.00010642,"INCLINATION":42.9999,"RA_OF_ASC_NODE":116.6625,"ARG_OF_PERICENTER":259.9915,"MEAN_ANOMALY":213.0193,"EPHEMERIS_TYPE":0,"CLASSIFICATION_TYPE":"U","NORAD_CAT_ID":57715,"ELEMENT_SET_NO":999,"REV_AT_EPOCH":557,"BSTAR":0.00020204404,"MEAN_MOTION_DOT":5.302e-5,"MEAN_MOTION_DDOT":0},{"OBJECT_NAME":"CZ-4B DEB","OBJECT_ID":"2010-051E","EPOCH":"2026-03-08T22:01:50.125728","MEAN_MOTION":15.23766972,"ECCENTRICITY":0.00561086,"INCLINATION":97.769,"RA_OF_ASC_NODE":240.5013,"ARG_OF_PERICENTER":301.1291,"MEAN_ANOMALY":58.4449,"EPHEMERIS_TYPE":0,"CLASSIFICATION_TYPE":"U","NORAD_CAT_ID":38184,"ELEMENT_SET_NO":999,"REV_AT_EPOCH":82066,"BSTAR":0.0024566319,"MEAN_MOTION_DOT":0.00062123,"MEAN_MOTION_DDOT":0}]
